0 FENGYUN 1C DEB
1 32417U 99025DAD 13290.15546092  .00038175  00000-0  70070-2 0  1171
2 32417 097.7534 063.3947 0166032 117.3310 244.4156 14.56996623314050
